[{"OBJECT_NAME":"STARLINK-32590","OBJECT_ID":"2025-034U","EPOCH":"2026-03-09T19:21:36.262944","MEAN_MOTION":15.30197789,"ECCENTRICITY":8.46e-5,"INCLINATION":53.1578,"RA_OF_ASC_NODE":257.6577,"ARG_OF_PERICENTER":95.626,"MEAN_ANOMALY":264.4837,"EPHEMERIS_TYPE":0,"CLASSIFICATION_TYPE":"U","NORAD_CAT_ID":63047,"ELEMENT_SET_NO":999,"REV_AT_EPOCH":5909,"BSTAR":0.00099071584,"MEAN_MOTION_DOT":0.00029096,"MEAN_MOTION_DDOT":0},{"OBJECT_NAME":"TEVEL2-8","OBJECT_ID":"2025-052AF","EPOCH":"2026-03-09T16:02:08.542752","MEAN_MOTION":15.28392908,"ECCENTRICITY":0.0008031,"INCLINATION":97.4055,"RA_OF_ASC_NODE":324.2923,"ARG_OF_PERICENTER":124.9191,"MEAN_ANOMALY":235.2804,"EPHEMERIS_TYPE":0,"CLASSIFICATION_TYPE":"U","NORAD_CAT_ID":63239,"ELEMENT_SET_NO":999,"REV_AT_EPOCH":5480,"BSTAR":0.00069303947,"MEAN_MOTION_DOT":0.0001913,"MEAN_MOTION_DDOT":0}]
