STARLINK-32590          
1 63047U 25034U   26068.80666971  .00029096  00000+0  99072-3 0  9994
2 63047  53.1578 257.6577 0000846  95.6260 264.4837 15.30197789 59093
TEVEL2-8                
1 63239U 25052AF  26068.66815442  .00019130  00000+0  69304-3 0  9993
2 63239  97.4055 324.2923 0008031 124.9191 235.2804 15.28392908 54807
